NJUST-1                 
1 42722U 98067MB  18035.33873016  .00009609  00000-0  11244-3 0  9994
2 42722  51.6381 313.3091 0007012  94.8581 265.3213 15.62290442 39782
UNSW-ECO                
1 42723U 98067MC  18035.25751627  .00017538  00000-0  17617-3 0  9999
2 42723  51.6385 311.2718 0006551  95.3564 264.8179 15.65553205 39781
DUTHSAT                 
1 42724U 98067MD  18035.19015821  .00026627  00000-0  23169-3 0  9990
2 42724  51.6361 309.2931 0005782 100.9588 259.2059 15.68827966 39724
LILACSAT-1              
1 42725U 98067ME  18035.14844301  .00013705  00000-0  15083-3 0  9998
2 42725  51.6380 313.5396 0006041  96.9949 263.1733 15.63456635 39676
NSIGHT-1                
1 42726U 98067MF  18034.85024182  .00005861  00000-0  79377-4 0  9994
2 42726  51.6400 318.3169 0006552  95.7329 264.4411 15.59290717 39586
SNUSAT-1                
1 42727U 98067MG  18035.02459686  .00013528  00000-0  14934-3 0  9992
2 42727  51.6365 314.1845 0007277  62.5445 297.6288 15.63384071 39614
QBITO                   
1 42728U 98067MH  18035.33028593  .00013370  00000-0  14245-3 0  9996
2 42728  51.6399 311.7807 0003853 102.5024 257.6402 15.64323990 39514
AALTO-2                 
1 42729U 98067MJ  18035.19747682  .00015217  00000-0  16064-3 0  9991
2 42729  51.6379 312.3692 0003780 102.3501 257.7917 15.64431107 39500
SUSAT                   
1 42730U 98067MK  18035.17093722  .00015217  00000-0  16419-3 0  9994
2 42730  51.6376 312.9336 0003857  99.4663 260.6768 15.63871153 39482
I-INSPIRE II            
1 42731U 98067ML  18035.35662038  .00018478  00000-0  18229-3 0  9990
2 42731  51.6365 310.3983 0006165  54.8607 305.2965 15.65967523 39584
POLYITAN-2-SAU          
1 42732U 98067MM  18035.24404459  .00015060  00000-0  15769-3 0  9990
2 42732  51.6374 311.9067 0006354  51.7474 308.4092 15.64638023 39555
SNUSAT-1B               
1 42733U 98067MN  18035.23629146  .00014083  00000-0  15241-3 0  9991
2 42733  51.6376 312.6110 0006533  53.3853 306.7742 15.63857685 39541
EXALTA-1                
1 42734U 98067MP  18035.29839715  .00019348  00000-0  19047-3 0  9990
2 42734  51.6357 310.7576 0007698  75.4566 284.7283 15.65972742 39522
AOXIANG-1               
1 42735U 98067MQ  18035.32429287  .00010960  00000-0  12653-3 0  9991
2 42735  51.6372 313.2013 0007485  92.1728 268.0123 15.62465231 40914
BEEAGLESAT              
1 42736U 98067MR  18035.21686889  .00012807  00000-0  14262-3 0  9993
2 42736  51.6370 313.2312 0007315  91.3657 268.8176 15.63217139 39590
ATLANTIS                
1 42737U 98067MS  18034.83427909  .00090712  00000-0  44521-3 0  9999
2 42737  51.6275 303.7865 0006054 115.9460 244.2167 15.81440433 39577
ISS DEB (ROSA)          
1 42813U 98067MT  18034.62290082  .15228575  12406-4  85364-3 0  9994
2 42813  51.6149 299.9923 0007135 247.0242 113.0033 16.41949671 35003
SOYUZ-MS 06             
1 42937U 17054A   18034.79183760  .00002853  00000-0  50454-4 0  9999
2 42937  51.6426 323.7129 0003171  70.7646  24.2978 15.54051083 22389
PROGRESS-MS 07          
1 42971U 17065A   18034.79183760  .00002853  00000-0  50454-4 0  9999
2 42971  51.6426 323.7129 0003171  70.7646  24.2978 15.54051083 17493
SIMPL                   
1 42983U 98067NF  18035.38882009  .00002707  00000-0  46243-4 0  9990
2 42983  51.6441 320.1971 0005087  72.9853  24.2960 15.55281478 15540
ECAMSAT                 
1 43019U 98067NG  18035.23914639  .00003901  00000-0  62771-4 0  9991
2 43019  51.6408 320.9054 0005620  45.2864 314.8584 15.55611380 97844
ASTERIA                 
1 43020U 98067NH  18035.35108751  .00008586  00000-0  12634-3 0  9992
2 43020  51.6409 320.1574 0002898  49.6674 310.4570 15.56329390 11781
DELLINGR (RBLE)         
1 43021U 98067NJ  18035.36666734  .00004594  00000-0  72373-4 0  9996
2 43021  51.6407 320.2591 0002682  49.9158 310.2068 15.55721615 11786
TECHEDSAT 6             
1 43026U 98067NK  18035.30643532  .00043123  00000-0  46405-3 0  9993
2 43026  51.6376 318.3500 0004145 110.3972 249.7468 15.63271696 11707
OSIRIS-3U               
1 43027U 98067NL  18035.17922275  .00015921  00000-0  21565-3 0  9998
2 43027  51.6400 320.5081 0003385  36.6273 323.4950 15.57857896 11648
DRAGON CRS-13           
1 43060U 17080A   18013.43819444 -.00000207  00000-0  40301-5 0  9992
2 43060  51.6410  69.9362 0005652 135.1181 288.6702 15.56261152  4488
SOYUZ-MS 07             
1 43063U 17081A   18034.79183760  .00002853  00000-0  50454-4 0  9990
2 43063  51.6426 323.7129 0003171  70.7646  24.2978 15.54051083  7529
